{
  "type": "FeatureCollection",
  "name": "NER_SAFE_Phase1_Exposed_Infrastructure",
  "crs": {
    "type": "name",
    "properties": {
      "name": "urn:ogc:def:crs:OGC:1.3:CRS84"
    }
  },
  "features": [
    {
      "type": "Feature",
      "properties": {
        "event_id": "EVT-MEG-001",
        "asset_type": "Road",
        "name": "Unnamed Road",
        "fclass": "unclassified",
        "ref": ""
      },
      "geometry": {
        "type": "LineString",
        "coordinates": [
          [
            91.62212956901831,
            25.186680091514294
          ],
          [
            91.6219009,
            25.1867652
          ],
          [
            91.6218352,
            25.1868125
          ],
          [
            91.6218097,
            25.1868405
          ],
          [
            91.6217789,
            25.1869011
          ],
          [
            91.6217896,
            25.1869691
          ],
          [
            91.6218312,
            25.1870274
          ],
          [
            91.621909,
            25.1870674
          ],
          [
            91.6219948,
            25.1870662
          ],
          [
            91.62211566159081,
            25.187024215125394
          ]
        ]
      }
    },
    {
      "type": "Feature",
      "properties": {
        "event_id": "EVT-MEG-001",
        "asset_type": "Road",
        "name": "Unnamed Road",
        "fclass": "track",
        "ref": ""
      },
      "geometry": {
        "type": "LineString",
        "coordinates": [
          [
            91.62183712429432,
            25.185978544550018
          ],
          [
            91.62084859458392,
            25.18616054741965
          ]
        ]
      }
    },
    {
      "type": "Feature",
      "properties": {
        "event_id": "EVT-MEG-004",
        "asset_type": "Road",
        "name": "Unnamed Road",
        "fclass": "track",
        "ref": ""
      },
      "geometry": {
        "type": "LineString",
        "coordinates": [
          [
            91.64336780164743,
            25.185895599434787
          ],
          [
            91.6433792,
            25.1858847
          ],
          [
            91.6433879,
            25.1858534
          ],
          [
            91.6433962,
            25.1858081
          ],
          [
            91.6433667,
            25.1856755
          ],
          [
            91.643338,
            25.185538
          ],
          [
            91.6433488,
            25.1854893
          ],
          [
            91.6433845,
            25.1854507
          ],
          [
            91.6434163,
            25.1854278
          ],
          [
            91.6434578,
            25.1853934
          ],
          [
            91.6434895,
            25.1853835
          ],
          [
            91.6435343,
            25.1853824
          ],
          [
            91.6437844,
            25.1854357
          ],
          [
            91.6438185,
            25.1854357
          ],
          [
            91.643859,
            25.1854229
          ],
          [
            91.6438902,
            25.1853985
          ],
          [
            91.6439459,
            25.1852516
          ],
          [
            91.6439484,
            25.1852153
          ],
          [
            91.6439389,
            25.1851725
          ],
          [
            91.6439137,
            25.1851287
          ],
          [
            91.6437938,
            25.1849789
          ],
          [
            91.6436952,
            25.1848356
          ],
          [
            91.6436307,
            25.1847356
          ],
          [
            91.6435997,
            25.184685
          ],
          [
            91.6435719,
            25.1846247
          ],
          [
            91.6435273,
            25.1845171
          ],
          [
            91.6434794289255,
            25.184393733198803
          ]
        ]
      }
    },
    {
      "type": "Feature",
      "properties": {
        "event_id": "EVT-MEG-006",
        "asset_type": "Road",
        "name": "Unnamed Road",
        "fclass": "service",
        "ref": ""
      },
      "geometry": {
        "type": "LineString",
        "coordinates": [
          [
            91.69760851950419,
            25.175550161736403
          ],
          [
            91.6976554,
            25.1755747
          ],
          [
            91.6976994,
            25.1756122
          ],
          [
            91.6977278,
            25.1756519
          ],
          [
            91.6978441,
            25.1758648
          ],
          [
            91.6978803,
            25.175921
          ],
          [
            91.6979578,
            25.1760145
          ]
        ]
      }
    },
    {
      "type": "Feature",
      "properties": {
        "event_id": "EVT-MEG-006",
        "asset_type": "Road",
        "name": "Unnamed Road",
        "fclass": "secondary",
        "ref": ""
      },
      "geometry": {
        "type": "LineString",
        "coordinates": [
          [
            91.69719916454065,
            25.176316634387852
          ],
          [
            91.6972268,
            25.1764298
          ],
          [
            91.6973072,
            25.176766
          ],
          [
            91.6973703,
            25.176857
          ],
          [
            91.6975285,
            25.1770305
          ],
          [
            91.6976617370827,
            25.1771686557155
          ]
        ]
      }
    },
    {
      "type": "Feature",
      "properties": {
        "event_id": "EVT-MEG-006",
        "asset_type": "Road",
        "name": "Unnamed Road",
        "fclass": "secondary",
        "ref": ""
      },
      "geometry": {
        "type": "LineString",
        "coordinates": [
          [
            91.6970604912868,
            25.17771516035157
          ],
          [
            91.6968628,
            25.1776143
          ],
          [
            91.6967576,
            25.1775456
          ],
          [
            91.6966957,
            25.1774938
          ],
          [
            91.6966534,
            25.177424
          ],
          [
            91.6965765,
            25.1772571
          ],
          [
            91.69652,
            25.17705
          ],
          [
            91.69651655447367,
            25.177034818149576
          ]
        ]
      }
    },
    {
      "type": "Feature",
      "properties": {
        "event_id": "EVT-MEG-008",
        "asset_type": "Road",
        "name": "Unnamed Road",
        "fclass": "unclassified",
        "ref": ""
      },
      "geometry": {
        "type": "LineString",
        "coordinates": [
          [
            92.01993091559827,
            25.205824504723687
          ],
          [
            92.0199391,
            25.2057838
          ],
          [
            92.0199555,
            25.2056741
          ],
          [
            92.0199805,
            25.2055443
          ],
          [
            92.0200116,
            25.2054572
          ],
          [
            92.020055,
            25.2053978
          ],
          [
            92.0201139,
            25.2053329
          ],
          [
            92.0202932,
            25.2051891
          ],
          [
            92.02052115667993,
            25.205045954636454
          ]
        ]
      }
    },
    {
      "type": "Feature",
      "properties": {
        "event_id": "EVT-MEG-008",
        "asset_type": "Road",
        "name": "Unnamed Road",
        "fclass": "residential",
        "ref": ""
      },
      "geometry": {
        "type": "LineString",
        "coordinates": [
          [
            92.0205308,
            25.2055097
          ],
          [
            92.02079390803486,
            25.20533624841596
          ]
        ]
      }
    },
    {
      "type": "Feature",
      "properties": {
        "event_id": "EVT-MEG-008",
        "asset_type": "Road",
        "name": "Unnamed Road",
        "fclass": "residential",
        "ref": ""
      },
      "geometry": {
        "type": "LineString",
        "coordinates": [
          [
            92.0206112,
            25.2059619
          ],
          [
            92.0206729,
            25.2059158
          ],
          [
            92.020748,
            25.2058721
          ],
          [
            92.0208258,
            25.2058309
          ],
          [
            92.0209116,
            25.2057872
          ],
          [
            92.020976,
            25.2057605
          ],
          [
            92.0210371,
            25.205746
          ]
        ]
      }
    },
    {
      "type": "Feature",
      "properties": {
        "event_id": "EVT-MEG-008",
        "asset_type": "Road",
        "name": "Unnamed Road",
        "fclass": "residential",
        "ref": ""
      },
      "geometry": {
        "type": "LineString",
        "coordinates": [
          [
            92.02106053230288,
            25.205635328868585
          ],
          [
            92.0210498,
            25.2056643
          ],
          [
            92.0210343,
            25.2057212
          ],
          [
            92.0210371,
            25.205746
          ],
          [
            92.02104,
            25.2057711
          ],
          [
            92.02105198701538,
            25.205792425287036
          ]
        ]
      }
    },
    {
      "type": "Feature",
      "properties": {
        "event_id": "EVT-MEG-008",
        "asset_type": "Road",
        "name": "Unnamed Road",
        "fclass": "residential",
        "ref": ""
      },
      "geometry": {
        "type": "LineString",
        "coordinates": [
          [
            92.02038354461645,
            25.206859433558545
          ],
          [
            92.0204188,
            25.206834
          ],
          [
            92.0205496,
            25.2067474
          ],
          [
            92.0206079,
            25.2067031
          ],
          [
            92.020657,
            25.2066545
          ],
          [
            92.0206873,
            25.2066249
          ],
          [
            92.0207224,
            25.2065995
          ],
          [
            92.0207994,
            25.20657
          ],
          [
            92.0208601,
            25.2065509
          ],
          [
            92.0209115,
            25.2065446
          ],
          [
            92.0209489,
            25.2065404
          ],
          [
            92.02102317571124,
            25.206523599541505
          ]
        ]
      }
    },
    {
      "type": "Feature",
      "properties": {
        "event_id": "EVT-MEG-008",
        "asset_type": "Road",
        "name": "Unnamed Road",
        "fclass": "residential",
        "ref": ""
      },
      "geometry": {
        "type": "LineString",
        "coordinates": [
          [
            92.0205426,
            25.2070115
          ],
          [
            92.0205916,
            25.2069513
          ],
          [
            92.0206164,
            25.2069278
          ],
          [
            92.0206436,
            25.2069043
          ],
          [
            92.0207165,
            25.2068531
          ],
          [
            92.0207843,
            25.2068132
          ],
          [
            92.0208876,
            25.2067626
          ],
          [
            92.0209109,
            25.2067559
          ],
          [
            92.0209328,
            25.2067553
          ],
          [
            92.0209569,
            25.2067617
          ],
          [
            92.0209763,
            25.2067638
          ],
          [
            92.0209982,
            25.206759
          ],
          [
            92.02100508765814,
            25.20675682889037
          ]
        ]
      }
    },
    {
      "type": "Feature",
      "properties": {
        "event_id": "EVT-MEG-008",
        "asset_type": "Road",
        "name": "Unnamed Road",
        "fclass": "residential",
        "ref": ""
      },
      "geometry": {
        "type": "LineString",
        "coordinates": [
          [
            92.02067388238173,
            25.207120327000105
          ],
          [
            92.020718,
            25.2070687
          ],
          [
            92.0207852,
            25.2069985
          ],
          [
            92.020832,
            25.2069589
          ],
          [
            92.0209052,
            25.2069231
          ],
          [
            92.02099567512397,
            25.206897706773937
          ]
        ]
      }
    },
    {
      "type": "Feature",
      "properties": {
        "event_id": "EVT-MEG-008",
        "asset_type": "Road",
        "name": "Unnamed Road",
        "fclass": "residential",
        "ref": ""
      },
      "geometry": {
        "type": "LineString",
        "coordinates": [
          [
            92.02082964438702,
            25.207090229091648
          ],
          [
            92.020832,
            25.2070849
          ],
          [
            92.0208747,
            25.2070408
          ],
          [
            92.02092934440107,
            25.2070152992795
          ]
        ]
      }
    },
    {
      "type": "Feature",
      "properties": {
        "event_id": "EVT-MEG-008",
        "asset_type": "Building",
        "bldg_type": "building",
        "area_m2": 85.0
      },
      "geometry": {
        "type": "Polygon",
        "coordinates": [
          [
            [
              92.02015,
              25.2053861
            ],
            [
              92.0201781,
              25.2054387
            ],
            [
              92.0202962,
              25.2053634
            ],
            [
              92.0202625,
              25.2053091
            ],
            [
              92.02015,
              25.2053861
            ]
          ]
        ]
      }
    },
    {
      "type": "Feature",
      "properties": {
        "event_id": "EVT-MEG-008",
        "asset_type": "Settlement",
        "name": "Unnamed Settlement",
        "fclass": "hamlet"
      },
      "geometry": {
        "type": "Point",
        "coordinates": [
          92.021163,
          25.205999
        ]
      }
    },
    {
      "type": "Feature",
      "properties": {
        "event_id": "EVT-MEG-009",
        "asset_type": "Road",
        "name": "Unnamed Road",
        "fclass": "unclassified",
        "ref": ""
      },
      "geometry": {
        "type": "LineString",
        "coordinates": [
          [
            91.52078465722612,
            25.3054409568639
          ],
          [
            91.5207565,
            25.3053932
          ],
          [
            91.5206048,
            25.3051139
          ],
          [
            91.5205162,
            25.3049853
          ],
          [
            91.52046505680954,
            25.304922638072956
          ]
        ]
      }
    },
    {
      "type": "Feature",
      "properties": {
        "event_id": "EVT-MEG-009",
        "asset_type": "Settlement",
        "name": "Phlangkynshi",
        "fclass": "hamlet"
      },
      "geometry": {
        "type": "Point",
        "coordinates": [
          91.520383,
          25.303402
        ]
      }
    },
    {
      "type": "Feature",
      "properties": {
        "event_id": "EVT-MEG-012",
        "asset_type": "Road",
        "name": "Unnamed Road",
        "fclass": "trunk",
        "ref": "NH206"
      },
      "geometry": {
        "type": "LineString",
        "coordinates": [
          [
            92.02607223434971,
            25.184629196996966
          ],
          [
            92.0260723,
            25.1846293
          ],
          [
            92.0260857,
            25.1847009
          ],
          [
            92.0260991,
            25.1848065
          ],
          [
            92.02613,
            25.1848756
          ],
          [
            92.0261698,
            25.1849311
          ],
          [
            92.0264103,
            25.1851887
          ],
          [
            92.0265323,
            25.1853162
          ],
          [
            92.0265859,
            25.1853805
          ],
          [
            92.0266154,
            25.1854278
          ],
          [
            92.026641,
            25.1855162
          ],
          [
            92.0266221,
            25.1855771
          ],
          [
            92.02658022411995,
            25.18562019630642
          ]
        ]
      }
    },
    {
      "type": "Feature",
      "properties": {
        "event_id": "EVT-MEG-012",
        "asset_type": "Road",
        "name": "Unnamed Road",
        "fclass": "service",
        "ref": ""
      },
      "geometry": {
        "type": "LineString",
        "coordinates": [
          [
            92.0258698,
            25.185014
          ],
          [
            92.02613,
            25.1856141
          ]
        ]
      }
    },
    {
      "type": "Feature",
      "properties": {
        "event_id": "EVT-MEG-012",
        "asset_type": "Road",
        "name": "Unnamed Road",
        "fclass": "trunk",
        "ref": "NH206"
      },
      "geometry": {
        "type": "LineString",
        "coordinates": [
          [
            92.02606937427505,
            25.18564777965196
          ],
          [
            92.0260817,
            25.1856445
          ],
          [
            92.02613,
            25.1856141
          ],
          [
            92.0261762,
            25.1855534
          ],
          [
            92.0262044,
            25.1854752
          ],
          [
            92.0262118,
            25.185392
          ],
          [
            92.0262071,
            25.1853162
          ],
          [
            92.0261836,
            25.1852494
          ],
          [
            92.0261541,
            25.1851839
          ],
          [
            92.0260911,
            25.1850989
          ],
          [
            92.0260146,
            25.1849824
          ],
          [
            92.025965,
            25.1848805
          ],
          [
            92.0259328,
            25.1847858
          ],
          [
            92.02592780521141,
            25.184705789141443
          ]
        ]
      }
    },
    {
      "type": "Feature",
      "properties": {
        "event_id": "EVT-MEG-012",
        "asset_type": "Building",
        "bldg_type": "building",
        "area_m2": 85.0
      },
      "geometry": {
        "type": "Polygon",
        "coordinates": [
          [
            [
              92.026366,
              25.1846305
            ],
            [
              92.0264225,
              25.1846798
            ],
            [
              92.026495,
              25.1846119
            ],
            [
              92.0264384,
              25.1845625
            ],
            [
              92.026366,
              25.1846305
            ]
          ]
        ]
      }
    },
    {
      "type": "Feature",
      "properties": {
        "event_id": "EVT-MEG-012",
        "asset_type": "Building",
        "bldg_type": "building",
        "area_m2": 85.0
      },
      "geometry": {
        "type": "Polygon",
        "coordinates": [
          [
            [
              92.0264934,
              25.1846875
            ],
            [
              92.0265183,
              25.1847161
            ],
            [
              92.0265625,
              25.1846845
            ],
            [
              92.0265377,
              25.184656
            ],
            [
              92.0264934,
              25.1846875
            ]
          ]
        ]
      }
    },
    {
      "type": "Feature",
      "properties": {
        "event_id": "EVT-MEG-012",
        "asset_type": "Building",
        "bldg_type": "building",
        "area_m2": 85.0
      },
      "geometry": {
        "type": "Polygon",
        "coordinates": [
          [
            [
              92.0266973,
              25.1847153
            ],
            [
              92.0267631,
              25.1847907
            ],
            [
              92.026894,
              25.1846971
            ],
            [
              92.0268282,
              25.1846217
            ],
            [
              92.0266973,
              25.1847153
            ]
          ]
        ]
      }
    },
    {
      "type": "Feature",
      "properties": {
        "event_id": "EVT-MEG-012",
        "asset_type": "Building",
        "bldg_type": "building",
        "area_m2": 85.0
      },
      "geometry": {
        "type": "Polygon",
        "coordinates": [
          [
            [
              92.0267631,
              25.1847907
            ],
            [
              92.0267769,
              25.184807
            ],
            [
              92.0268112,
              25.1848479
            ],
            [
              92.0269438,
              25.1847569
            ],
            [
              92.026894,
              25.1846971
            ],
            [
              92.0267631,
              25.1847907
            ]
          ]
        ]
      }
    },
    {
      "type": "Feature",
      "properties": {
        "event_id": "EVT-MEG-012",
        "asset_type": "Building",
        "bldg_type": "building",
        "area_m2": 85.0
      },
      "geometry": {
        "type": "Polygon",
        "coordinates": [
          [
            [
              92.0262989,
              25.1847992
            ],
            [
              92.0263191,
              25.1848586
            ],
            [
              92.0263916,
              25.1848385
            ],
            [
              92.0263715,
              25.1847791
            ],
            [
              92.0262989,
              25.1847992
            ]
          ]
        ]
      }
    },
    {
      "type": "Feature",
      "properties": {
        "event_id": "EVT-MEG-012",
        "asset_type": "Building",
        "bldg_type": "building",
        "area_m2": 85.0
      },
      "geometry": {
        "type": "Polygon",
        "coordinates": [
          [
            [
              92.0268237,
              25.184851
            ],
            [
              92.0268797,
              25.1849178
            ],
            [
              92.0269893,
              25.1848426
            ],
            [
              92.0269333,
              25.1847758
            ],
            [
              92.02683,
              25.1848467
            ],
            [
              92.0268237,
              25.184851
            ]
          ]
        ]
      }
    },
    {
      "type": "Feature",
      "properties": {
        "event_id": "EVT-MEG-012",
        "asset_type": "Building",
        "bldg_type": "building",
        "area_m2": 85.0
      },
      "geometry": {
        "type": "Polygon",
        "coordinates": [
          [
            [
              92.0265432,
              25.1848951
            ],
            [
              92.0266034,
              25.18494
            ],
            [
              92.0266785,
              25.1848574
            ],
            [
              92.0266183,
              25.1848125
            ],
            [
              92.0265432,
              25.1848951
            ]
          ]
        ]
      }
    },
    {
      "type": "Feature",
      "properties": {
        "event_id": "EVT-MEG-012",
        "asset_type": "Building",
        "bldg_type": "building",
        "area_m2": 85.0
      },
      "geometry": {
        "type": "Polygon",
        "coordinates": [
          [
            [
              92.0263807,
              25.1849157
            ],
            [
              92.0264411,
              25.1850164
            ],
            [
              92.0265144,
              25.1849805
            ],
            [
              92.026454,
              25.1848797
            ],
            [
              92.0263807,
              25.1849157
            ]
          ]
        ]
      }
    },
    {
      "type": "Feature",
      "properties": {
        "event_id": "EVT-MEG-012",
        "asset_type": "Building",
        "bldg_type": "building",
        "area_m2": 85.0
      },
      "geometry": {
        "type": "Polygon",
        "coordinates": [
          [
            [
              92.0257542,
              25.1849416
            ],
            [
              92.0257905,
              25.1850174
            ],
            [
              92.0259475,
              25.1849558
            ],
            [
              92.0259112,
              25.1848801
            ],
            [
              92.0257542,
              25.1849416
            ]
          ]
        ]
      }
    },
    {
      "type": "Feature",
      "properties": {
        "event_id": "EVT-MEG-012",
        "asset_type": "Building",
        "bldg_type": "building",
        "area_m2": 85.0
      },
      "geometry": {
        "type": "Polygon",
        "coordinates": [
          [
            [
              92.0266519,
              25.1850222
            ],
            [
              92.0267337,
              25.1850673
            ],
            [
              92.0267794,
              25.1849995
            ],
            [
              92.0266975,
              25.1849543
            ],
            [
              92.0266519,
              25.1850222
            ]
          ]
        ]
      }
    },
    {
      "type": "Feature",
      "properties": {
        "event_id": "EVT-MEG-019",
        "asset_type": "Road",
        "name": "Unnamed Road",
        "fclass": "trunk",
        "ref": "NH6"
      },
      "geometry": {
        "type": "LineString",
        "coordinates": [
          [
            92.4059536,
            25.0488601
          ],
          [
            92.4062257866886,
            25.048655551078145
          ]
        ]
      }
    },
    {
      "type": "Feature",
      "properties": {
        "event_id": "EVT-MEG-019",
        "asset_type": "Road",
        "name": "Unnamed Road",
        "fclass": "trunk",
        "ref": "NH6"
      },
      "geometry": {
        "type": "LineString",
        "coordinates": [
          [
            92.40609981195637,
            25.049255246922893
          ],
          [
            92.4060608,
            25.0492003
          ],
          [
            92.4059898,
            25.0490994
          ],
          [
            92.4059576,
            25.0489755
          ],
          [
            92.4059536,
            25.0488601
          ]
        ]
      }
    },
    {
      "type": "Feature",
      "properties": {
        "event_id": "EVT-MEG-019",
        "asset_type": "Road",
        "name": "Unnamed Road",
        "fclass": "trunk",
        "ref": "NH6"
      },
      "geometry": {
        "type": "LineString",
        "coordinates": [
          [
            92.4051066765173,
            25.049637322761928
          ],
          [
            92.4051931,
            25.0496802
          ],
          [
            92.4054185,
            25.0496972
          ],
          [
            92.4056706,
            25.0497166
          ],
          [
            92.40570226295145,
            25.04971557861447
          ]
        ]
      }
    },
    {
      "type": "Feature",
      "properties": {
        "event_id": "EVT-MEG-021",
        "asset_type": "Road",
        "name": "Unnamed Road",
        "fclass": "trunk",
        "ref": "NH6"
      },
      "geometry": {
        "type": "LineString",
        "coordinates": [
          [
            92.36621992402507,
            25.07298322836552
          ],
          [
            92.3664701,
            25.0730125
          ],
          [
            92.3666337,
            25.0730247
          ],
          [
            92.3667651,
            25.0731024
          ],
          [
            92.36677278683264,
            25.073115625171685
          ]
        ]
      }
    },
    {
      "type": "Feature",
      "properties": {
        "event_id": "EVT-MEG-022",
        "asset_type": "Road",
        "name": "Unnamed Road",
        "fclass": "trunk",
        "ref": "NH6"
      },
      "geometry": {
        "type": "LineString",
        "coordinates": [
          [
            92.3878139617626,
            25.12651230579148
          ],
          [
            92.3877802,
            25.1264805
          ],
          [
            92.38734018822699,
            25.126150290696245
          ]
        ]
      }
    },
    {
      "type": "Feature",
      "properties": {
        "event_id": "EVT-MEG-023",
        "asset_type": "Road",
        "name": "Unnamed Road",
        "fclass": "trunk",
        "ref": "NH6"
      },
      "geometry": {
        "type": "LineString",
        "coordinates": [
          [
            92.36882530976219,
            25.15017566551271
          ],
          [
            92.3689646,
            25.1503469
          ],
          [
            92.36919153005813,
            25.15068615769146
          ]
        ]
      }
    },
    {
      "type": "Feature",
      "properties": {
        "event_id": "EVT-MIZ-016",
        "asset_type": "Road",
        "name": "Unnamed Road",
        "fclass": "trunk",
        "ref": "NH2"
      },
      "geometry": {
        "type": "LineString",
        "coordinates": [
          [
            92.9472446107991,
            22.418764843610386
          ],
          [
            92.9474494,
            22.4184632
          ],
          [
            92.94755840420756,
            22.418226307638644
          ]
        ]
      }
    },
    {
      "type": "Feature",
      "properties": {
        "event_id": "EVT-MIZ-018",
        "asset_type": "Road",
        "name": "Unnamed Road",
        "fclass": "trunk",
        "ref": "NH2"
      },
      "geometry": {
        "type": "LineString",
        "coordinates": [
          [
            92.95431693727319,
            22.4022516936947
          ],
          [
            92.95488817600317,
            22.40200563996081
          ]
        ]
      }
    },
    {
      "type": "Feature",
      "properties": {
        "event_id": "EVT-MIZ-018",
        "asset_type": "Building",
        "bldg_type": "building",
        "area_m2": 85.0
      },
      "geometry": {
        "type": "Polygon",
        "coordinates": [
          [
            [
              92.9541728,
              22.4008328
            ],
            [
              92.95421,
              22.4008884
            ],
            [
              92.9542851,
              22.4008454
            ],
            [
              92.9542478,
              22.4007898
            ],
            [
              92.9541728,
              22.4008328
            ]
          ]
        ]
      }
    },
    {
      "type": "Feature",
      "properties": {
        "event_id": "EVT-MIZ-018",
        "asset_type": "Building",
        "bldg_type": "building",
        "area_m2": 85.0
      },
      "geometry": {
        "type": "Polygon",
        "coordinates": [
          [
            [
              92.9542772,
              22.401221
            ],
            [
              92.9543333,
              22.4012871
            ],
            [
              92.9544135,
              22.401229
            ],
            [
              92.9543574,
              22.4011628
            ],
            [
              92.9542772,
              22.401221
            ]
          ]
        ]
      }
    },
    {
      "type": "Feature",
      "properties": {
        "event_id": "EVT-MIZ-018",
        "asset_type": "Building",
        "bldg_type": "building",
        "area_m2": 85.0
      },
      "geometry": {
        "type": "Polygon",
        "coordinates": [
          [
            [
              92.9543491,
              22.4013219
            ],
            [
              92.9543844,
              22.4013845
            ],
            [
              92.9544797,
              22.4013387
            ],
            [
              92.9544444,
              22.401276
            ],
            [
              92.9543491,
              22.4013219
            ]
          ]
        ]
      }
    },
    {
      "type": "Feature",
      "properties": {
        "event_id": "EVT-MIZ-018",
        "asset_type": "Building",
        "bldg_type": "building",
        "area_m2": 85.0
      },
      "geometry": {
        "type": "Polygon",
        "coordinates": [
          [
            [
              92.9544752,
              22.4012679
            ],
            [
              92.9545763,
              22.4014478
            ],
            [
              92.9546837,
              22.4013962
            ],
            [
              92.9545826,
              22.4012163
            ],
            [
              92.9544752,
              22.4012679
            ]
          ]
        ]
      }
    },
    {
      "type": "Feature",
      "properties": {
        "event_id": "EVT-MIZ-018",
        "asset_type": "Building",
        "bldg_type": "building",
        "area_m2": 85.0
      },
      "geometry": {
        "type": "Polygon",
        "coordinates": [
          [
            [
              92.9541665,
              22.4013641
            ],
            [
              92.9542169,
              22.4014257
            ],
            [
              92.9542698,
              22.4013887
            ],
            [
              92.9542194,
              22.4013271
            ],
            [
              92.9541665,
              22.4013641
            ]
          ]
        ]
      }
    },
    {
      "type": "Feature",
      "properties": {
        "event_id": "EVT-MIZ-018",
        "asset_type": "Building",
        "bldg_type": "building",
        "area_m2": 85.0
      },
      "geometry": {
        "type": "Polygon",
        "coordinates": [
          [
            [
              92.9540747,
              22.4013945
            ],
            [
              92.954129,
              22.4014348
            ],
            [
              92.9541696,
              22.401388
            ],
            [
              92.9541153,
              22.4013477
            ],
            [
              92.9540747,
              22.4013945
            ]
          ]
        ]
      }
    },
    {
      "type": "Feature",
      "properties": {
        "event_id": "EVT-MIZ-018",
        "asset_type": "Building",
        "bldg_type": "building",
        "area_m2": 85.0
      },
      "geometry": {
        "type": "Polygon",
        "coordinates": [
          [
            [
              92.9544313,
              22.4014281
            ],
            [
              92.9544717,
              22.4014831
            ],
            [
              92.9545239,
              22.4014502
            ],
            [
              92.9544835,
              22.4013953
            ],
            [
              92.9544313,
              22.4014281
            ]
          ]
        ]
      }
    },
    {
      "type": "Feature",
      "properties": {
        "event_id": "EVT-MIZ-018",
        "asset_type": "Building",
        "bldg_type": "building",
        "area_m2": 85.0
      },
      "geometry": {
        "type": "Polygon",
        "coordinates": [
          [
            [
              92.9537874,
              22.4014692
            ],
            [
              92.9538144,
              22.4015059
            ],
            [
              92.9538799,
              22.4014647
            ],
            [
              92.9538529,
              22.4014281
            ],
            [
              92.9537874,
              22.4014692
            ]
          ]
        ]
      }
    },
    {
      "type": "Feature",
      "properties": {
        "event_id": "EVT-MIZ-018",
        "asset_type": "Building",
        "bldg_type": "building",
        "area_m2": 85.0
      },
      "geometry": {
        "type": "Polygon",
        "coordinates": [
          [
            [
              92.9546572,
              22.4015243
            ],
            [
              92.9546892,
              22.4015582
            ],
            [
              92.9547376,
              22.4015192
            ],
            [
              92.9547056,
              22.4014852
            ],
            [
              92.9546572,
              22.4015243
            ]
          ]
        ]
      }
    },
    {
      "type": "Feature",
      "properties": {
        "event_id": "EVT-MIZ-018",
        "asset_type": "Building",
        "bldg_type": "building",
        "area_m2": 85.0
      },
      "geometry": {
        "type": "Polygon",
        "coordinates": [
          [
            [
              92.9543289,
              22.4015104
            ],
            [
              92.9543843,
              22.4015836
            ],
            [
              92.9544312,
              22.4015533
            ],
            [
              92.9543758,
              22.40148
            ],
            [
              92.9543289,
              22.4015104
            ]
          ]
        ]
      }
    },
    {
      "type": "Feature",
      "properties": {
        "event_id": "EVT-MIZ-018",
        "asset_type": "Building",
        "bldg_type": "building",
        "area_m2": 85.0
      },
      "geometry": {
        "type": "Polygon",
        "coordinates": [
          [
            [
              92.954525,
              22.4015565
            ],
            [
              92.9545753,
              22.4016218
            ],
            [
              92.954661,
              22.4015654
            ],
            [
              92.9546108,
              22.4015001
            ],
            [
              92.954525,
              22.4015565
            ]
          ]
        ]
      }
    },
    {
      "type": "Feature",
      "properties": {
        "event_id": "EVT-MIZ-018",
        "asset_type": "Building",
        "bldg_type": "building",
        "area_m2": 85.0
      },
      "geometry": {
        "type": "Polygon",
        "coordinates": [
          [
            [
              92.9536946,
              22.4015937
            ],
            [
              92.9537193,
              22.4016235
            ],
            [
              92.9537852,
              22.4015767
            ],
            [
              92.9537604,
              22.4015469
            ],
            [
              92.9536946,
              22.4015937
            ]
          ]
        ]
      }
    },
    {
      "type": "Feature",
      "properties": {
        "event_id": "EVT-MIZ-018",
        "asset_type": "Building",
        "bldg_type": "building",
        "area_m2": 85.0
      },
      "geometry": {
        "type": "Polygon",
        "coordinates": [
          [
            [
              92.954439,
              22.4016177
            ],
            [
              92.9544705,
              22.401655
            ],
            [
              92.9545226,
              22.4016174
            ],
            [
              92.9544912,
              22.4015801
            ],
            [
              92.954439,
              22.4016177
            ]
          ]
        ]
      }
    },
    {
      "type": "Feature",
      "properties": {
        "event_id": "EVT-MIZ-018",
        "asset_type": "Building",
        "bldg_type": "building",
        "area_m2": 85.0
      },
      "geometry": {
        "type": "Polygon",
        "coordinates": [
          [
            [
              92.9546815,
              22.4016309
            ],
            [
              92.9547715,
              22.4017287
            ],
            [
              92.9548411,
              22.401674
            ],
            [
              92.9547511,
              22.4015762
            ],
            [
              92.9546815,
              22.4016309
            ]
          ]
        ]
      }
    },
    {
      "type": "Feature",
      "properties": {
        "event_id": "EVT-MIZ-018",
        "asset_type": "Building",
        "bldg_type": "building",
        "area_m2": 85.0
      },
      "geometry": {
        "type": "Polygon",
        "coordinates": [
          [
            [
              92.9547814,
              22.4018536
            ],
            [
              92.9548232,
              22.4019224
            ],
            [
              92.9549317,
              22.4018661
            ],
            [
              92.95489,
              22.4017973
            ],
            [
              92.9547814,
              22.4018536
            ]
          ]
        ]
      }
    },
    {
      "type": "Feature",
      "properties": {
        "event_id": "EVT-MIZ-018",
        "asset_type": "Building",
        "bldg_type": "building",
        "area_m2": 85.0
      },
      "geometry": {
        "type": "Polygon",
        "coordinates": [
          [
            [
              92.954643,
              22.4019561
            ],
            [
              92.9546746,
              22.4020087
            ],
            [
              92.9547658,
              22.4019618
            ],
            [
              92.9547342,
              22.4019092
            ],
            [
              92.954643,
              22.4019561
            ]
          ]
        ]
      }
    },
    {
      "type": "Feature",
      "properties": {
        "event_id": "EVT-MIZ-018",
        "asset_type": "Building",
        "bldg_type": "building",
        "area_m2": 85.0
      },
      "geometry": {
        "type": "Polygon",
        "coordinates": [
          [
            [
              92.9545053,
              22.4019651
            ],
            [
              92.9545545,
              22.4020408
            ],
            [
              92.954652,
              22.4019867
            ],
            [
              92.9546028,
              22.401911
            ],
            [
              92.9545053,
              22.4019651
            ]
          ]
        ]
      }
    },
    {
      "type": "Feature",
      "properties": {
        "event_id": "EVT-MIZ-018",
        "asset_type": "Building",
        "bldg_type": "building",
        "area_m2": 85.0
      },
      "geometry": {
        "type": "Polygon",
        "coordinates": [
          [
            [
              92.9544071,
              22.4020911
            ],
            [
              92.9544375,
              22.4021392
            ],
            [
              92.9545516,
              22.4020776
            ],
            [
              92.9545212,
              22.4020295
            ],
            [
              92.9544071,
              22.4020911
            ]
          ]
        ]
      }
    },
    {
      "type": "Feature",
      "properties": {
        "event_id": "EVT-MIZ-018",
        "asset_type": "Building",
        "bldg_type": "building",
        "area_m2": 85.0
      },
      "geometry": {
        "type": "Polygon",
        "coordinates": [
          [
            [
              92.9543049,
              22.4021321
            ],
            [
              92.954334,
              22.4021767
            ],
            [
              92.9543835,
              22.4021491
            ],
            [
              92.9544017,
              22.4021769
            ],
            [
              92.9544374,
              22.402157
            ],
            [
              92.9543901,
              22.4020846
            ],
            [
              92.9543049,
              22.4021321
            ]
          ]
        ]
      }
    },
    {
      "type": "Feature",
      "properties": {
        "event_id": "EVT-MIZ-018",
        "asset_type": "Settlement",
        "name": "Kaochao 'E'",
        "fclass": "village"
      },
      "geometry": {
        "type": "Point",
        "coordinates": [
          92.955752,
          22.401519
        ]
      }
    },
    {
      "type": "Feature",
      "properties": {
        "event_id": "EVT-MIZ-020",
        "asset_type": "Road",
        "name": "Unnamed Road",
        "fclass": "trunk",
        "ref": "NH2"
      },
      "geometry": {
        "type": "LineString",
        "coordinates": [
          [
            92.87052140884265,
            22.580119869748895
          ],
          [
            92.8703351,
            22.5803334
          ],
          [
            92.8701592,
            22.5804387
          ],
          [
            92.8701074558076,
            22.58047657631033
          ]
        ]
      }
    },
    {
      "type": "Feature",
      "properties": {
        "event_id": "EVT-MIZ-022",
        "asset_type": "Road",
        "name": "Unnamed Road",
        "fclass": "trunk",
        "ref": "NH6"
      },
      "geometry": {
        "type": "LineString",
        "coordinates": [
          [
            92.67262870509757,
            24.026418144421818
          ],
          [
            92.6726302,
            24.0265625
          ],
          [
            92.6725416,
            24.0267243
          ],
          [
            92.6724871,
            24.0269277
          ],
          [
            92.6725075,
            24.0270273
          ],
          [
            92.6725666,
            24.0271394
          ],
          [
            92.6726825,
            24.0272681
          ],
          [
            92.67268783418187,
            24.027280389865567
          ]
        ]
      }
    },
    {
      "type": "Feature",
      "properties": {
        "event_id": "EVT-MIZ-023",
        "asset_type": "Road",
        "name": "Unnamed Road",
        "fclass": "trunk",
        "ref": "NH6"
      },
      "geometry": {
        "type": "LineString",
        "coordinates": [
          [
            92.68179892427155,
            24.08176456728947
          ],
          [
            92.6818017,
            24.0817756
          ],
          [
            92.6817619,
            24.0821024
          ],
          [
            92.6817056,
            24.0823657
          ],
          [
            92.68171852925768,
            24.082389322787275
          ]
        ]
      }
    }
  ]
}